start=new Date('2022-07-28T00:00:00.000Z').valueOf();
sats=[{"DECAY_DATE":null,"REV_AT_EPOCH":"8251","BSTAR":"0.00006283400000","MEAN_ELEMENT_THEORY":"SGP4","MEAN_MOTION_DOT":"0.00000654","EPOCH":"2022-07-27T11:49:07.349088","OBJECT_ID":"2021-012K","SITE":"AFETR","GP_ID":"208968356","NORAD_CAT_ID":"47629","REF_FRAME":"TEME","ELEMENT_SET_NO":"999","RA_OF_ASC_NODE":"122.7136","SEMIMAJOR_AXIS":"6925.357","ARG_OF_PERICENTER":"70.8612","RCS_SIZE":"LARGE","MEAN_MOTION":"15.06397099","PERIOD":"95.592","TLE_LINE1":"1 47629U 21012K   22208.49244617  .00000654  00000-0  62834-4 0  9997","MEAN_ANOMALY":"289.2548","EPHEMERIS_TYPE":"0","TLE_LINE2":"2 47629  53.0562 122.7136 0001583  70.8612 289.2548 15.06397099 82517","ECCENTRICITY":"0.00015830","TIME_SYSTEM":"UTC","MEAN_MOTION_DDOT":"0.0000000000000","CENTER_NAME":"EARTH","LAUNCH_DATE":"2021-02-16","OBJECT_NAME":"STARLINK-1974","OBJECT_TYPE":"PAYLOAD","COUNTRY_CODE":"US","CLASSIFICATION_TYPE":"U","PERIAPSIS":"546.126","FILE":"3523109","APOAPSIS":"548.319","INCLINATION":"53.0562"},{"NORAD_CAT_ID":"47630","GP_ID":"208969106","ELEMENT_SET_NO":"999","REF_FRAME":"TEME","SEMIMAJOR_AXIS":"6925.362","RA_OF_ASC_NODE":"222.9865","DECAY_DATE":null,"MEAN_ELEMENT_THEORY":"SGP4","BSTAR":"0.00006629200000","REV_AT_EPOCH":"8110","MEAN_MOTION_DOT":"0.00000706","OBJECT_ID":"2021-012L","EPOCH":"2022-07-27T10:48:07.202304","SITE":"AFETR","PERIOD":"95.592","TLE_LINE1":"1 47630U 21012L   22208.45008336  .00000706  00000-0  66292-4 0  9991","ARG_OF_PERICENTER":"54.0166","RCS_SIZE":"LARGE","MEAN_MOTION":"15.06395618","CENTER_NAME":"EARTH","LAUNCH_DATE":"2021-02-16","MEAN_ANOMALY":"306.1005","EPHEMERIS_TYPE":"0","ECCENTRICITY":"0.00019720","TLE_LINE2":"2 47630  53.0547 222.9865 0001972  54.0166 306.1005 15.06395618 81100","MEAN_MOTION_DDOT":"0.0000000000000","TIME_SYSTEM":"UTC","FILE":"3523109","APOAPSIS":"548.593","INCLINATION":"53.0547","OBJECT_NAME":"STARLINK-1983","PERIAPSIS":"545.861","COUNTRY_CODE":"US","CLASSIFICATION_TYPE":"U","OBJECT_TYPE":"PAYLOAD"},{"EPOCH":"2022-07-27T05:51:29.084832","MEAN_MOTION_DOT":"0.00000105","OBJECT_ID":"2021-012N","SITE":"AFETR","DECAY_DATE":null,"MEAN_ELEMENT_THEORY":"SGP4","BSTAR":"0.00002595500000","REV_AT_EPOCH":"8212","REF_FRAME":"TEME","ELEMENT_SET_NO":"999","SEMIMAJOR_AXIS":"6925.391","RA_OF_ASC_NODE":"148.8273","NORAD_CAT_ID":"47632","GP_ID":"208967854","ARG_OF_PERICENTER":"64.1672","RCS_SIZE":"LARGE","MEAN_MOTION":"15.06386194","TLE_LINE1":"1 47632U 21012N   22208.24408663  .00000105  00000-0  25955-4 0  9991","PERIOD":"95.593","ECCENTRICITY":"0.00017040","TLE_LINE2":"2 47632  53.0535 148.8273 0001704  64.1672 295.9492 15.06386194 82122","MEAN_MOTION_DDOT":"0.0000000000000","TIME_SYSTEM":"UTC","MEAN_ANOMALY":"295.9492","EPHEMERIS_TYPE":"0","CENTER_NAME":"EARTH","LAUNCH_DATE":"2021-02-16","PERIAPSIS":"546.076","COUNTRY_CODE":"US","CLASSIFICATION_TYPE":"U","OBJECT_TYPE":"PAYLOAD","OBJECT_NAME":"STARLINK-1992","APOAPSIS":"548.436","INCLINATION":"53.0535","FILE":"3523109"},{"COUNTRY_CODE":"US","CLASSIFICATION_TYPE":"U","OBJECT_TYPE":"PAYLOAD","PERIAPSIS":"546.154","OBJECT_NAME":"STARLINK-2009","INCLINATION":"53.0542","APOAPSIS":"548.336","FILE":"3523323","TIME_SYSTEM":"UTC","MEAN_MOTION_DDOT":"0.0000000000000","TLE_LINE2":"2 47633  53.0542 241.3785 0001575  62.6683 297.4466 15.06389691 80917","ECCENTRICITY":"0.00015750","EPHEMERIS_TYPE":"0","MEAN_ANOMALY":"297.4466","LAUNCH_DATE":"2021-02-16","CENTER_NAME":"EARTH","RCS_SIZE":"LARGE","ARG_OF_PERICENTER":"62.6683","MEAN_MOTION":"15.06389691","TLE_LINE1":"1 47633U 21012P   22208.79376825 -.00000704  00000-0 -28404-4 0  9995","PERIOD":"95.593","SITE":"AFETR","EPOCH":"2022-07-27T19:03:01.576800","MEAN_MOTION_DOT":"-0.00000704","OBJECT_ID":"2021-012P","REV_AT_EPOCH":"8091","MEAN_ELEMENT_THEORY":"SGP4","BSTAR":"-0.00002840400000","DECAY_DATE":null,"RA_OF_ASC_NODE":"241.3785","SEMIMAJOR_AXIS":"6925.380","REF_FRAME":"TEME","ELEMENT_SET_NO":"999","GP_ID":"208998640","NORAD_CAT_ID":"47633"},{"ECCENTRICITY":"0.00014950","TLE_LINE2":"2 47634  53.0541 242.6550 0001495  77.0592 283.0564 15.06400701 80849","TIME_SYSTEM":"UTC","MEAN_MOTION_DDOT":"0.0000000000000","MEAN_ANOMALY":"283.0564","EPHEMERIS_TYPE":"0","CENTER_NAME":"EARTH","LAUNCH_DATE":"2021-02-16","CLASSIFICATION_TYPE":"U","COUNTRY_CODE":"US","OBJECT_TYPE":"PAYLOAD","PERIAPSIS":"546.176","OBJECT_NAME":"STARLINK-2010","APOAPSIS":"548.247","INCLINATION":"53.0541","FILE":"3523109","EPOCH":"2022-07-27T12:05:04.106400","MEAN_MOTION_DOT":"0.00001923","OBJECT_ID":"2021-012Q","SITE":"AFETR","DECAY_DATE":null,"REV_AT_EPOCH":"8084","BSTAR":"0.00014794000000","MEAN_ELEMENT_THEORY":"SGP4","ELEMENT_SET_NO":"999","REF_FRAME":"TEME","RA_OF_ASC_NODE":"242.6550","SEMIMAJOR_AXIS":"6925.346","GP_ID":"208968856","NORAD_CAT_ID":"47634","RCS_SIZE":"LARGE","ARG_OF_PERICENTER":"77.0592","MEAN_MOTION":"15.06400701","TLE_LINE1":"1 47634U 21012Q   22208.50351975  .00001923  00000-0  14794-3 0  9992","PERIOD":"95.592"},{"CENTER_NAME":"EARTH","LAUNCH_DATE":"2021-02-16","MEAN_ANOMALY":"288.1407","EPHEMERIS_TYPE":"0","TLE_LINE2":"2 47635  53.0601 146.0474 0001586  71.9755 288.1407 15.06394463 82238","ECCENTRICITY":"0.00015860","TIME_SYSTEM":"UTC","MEAN_MOTION_DDOT":"0.0000000000000","FILE":"3523323","APOAPSIS":"548.329","INCLINATION":"53.0601","OBJECT_NAME":"STARLINK-2012","OBJECT_TYPE":"PAYLOAD","COUNTRY_CODE":"US","CLASSIFICATION_TYPE":"U","PERIAPSIS":"546.132","NORAD_CAT_ID":"47635","GP_ID":"208998131","ELEMENT_SET_NO":"999","REF_FRAME":"TEME","RA_OF_ASC_NODE":"146.0474","SEMIMAJOR_AXIS":"6925.366","DECAY_DATE":null,"REV_AT_EPOCH":"8223","BSTAR":"0.00012765000000","MEAN_ELEMENT_THEORY":"SGP4","MEAN_MOTION_DOT":"0.00001620","OBJECT_ID":"2021-012R","EPOCH":"2022-07-27T20:39:14.284800","SITE":"AFETR","PERIOD":"95.592","TLE_LINE1":"1 47635U 21012R   22208.86058200  .00001620  00000-0  12765-3 0  9997","MEAN_MOTION":"15.06394463","RCS_SIZE":"LARGE","ARG_OF_PERICENTER":"71.9755"},{"INCLINATION":"53.0543","APOAPSIS":"548.252","FILE":"3523323","PERIAPSIS":"546.284","COUNTRY_CODE":"US","OBJECT_TYPE":"PAYLOAD","CLASSIFICATION_TYPE":"U","OBJECT_NAME":"STARLINK-2013","LAUNCH_DATE":"2021-02-16","CENTER_NAME":"EARTH","MEAN_MOTION_DDOT":"0.0000000000000","TIME_SYSTEM":"UTC","ECCENTRICITY":"0.00014210","TLE_LINE2":"2 47636  53.0543 221.5283 0001421  84.5128 275.6023 15.06382114 81169","EPHEMERIS_TYPE":"0","MEAN_ANOMALY":"275.6023","TLE_LINE1":"1 47636U 21012S   22208.75602117  .00001015  00000-0  87045-4 0  9990","PERIOD":"95.593","RCS_SIZE":"LARGE","MEAN_MOTION":"15.06382114","ARG_OF_PERICENTER":"84.5128","SEMIMAJOR_AXIS":"6925.403","RA_OF_ASC_NODE":"221.5283","REF_FRAME":"TEME","ELEMENT_SET_NO":"999","NORAD_CAT_ID":"47636","GP_ID":"208997889","SITE":"AFETR","EPOCH":"2022-07-27T18:08:40.229088","MEAN_MOTION_DOT":"0.00001015","OBJECT_ID":"2021-012S","MEAN_ELEMENT_THEORY":"SGP4","BSTAR":"0.00008704500000","REV_AT_EPOCH":"8116","DECAY_DATE":null},{"PERIOD":"95.592","TLE_LINE1":"1 47637U 21012T   22208.72651137 -.00001164  00000-0 -59273-4 0  9993","RCS_SIZE":"LARGE","ARG_OF_PERICENTER":"67.1803","MEAN_MOTION":"15.06394860","NORAD_CAT_ID":"47637","GP_ID":"208999133","REF_FRAME":"TEME","ELEMENT_SET_NO":"999","RA_OF_ASC_NODE":"221.6610","SEMIMAJOR_AXIS":"6925.364","DECAY_DATE":null,"REV_AT_EPOCH":"8117","BSTAR":"-0.00005927300000","MEAN_ELEMENT_THEORY":"SGP4","MEAN_MOTION_DOT":"-0.00001164","OBJECT_ID":"2021-012T","EPOCH":"2022-07-27T17:26:10.582368","SITE":"AFETR","FILE":"3523323","APOAPSIS":"548.411","INCLINATION":"53.0532","OBJECT_NAME":"STARLINK-2014","COUNTRY_CODE":"US","OBJECT_TYPE":"PAYLOAD","CLASSIFICATION_TYPE":"U","PERIAPSIS":"546.047","CENTER_NAME":"EARTH","LAUNCH_DATE":"2021-02-16","MEAN_ANOMALY":"292.9366","EPHEMERIS_TYPE":"0","TLE_LINE2":"2 47637  53.0532 221.6610 0001707  67.1803 292.9366 15.06394860 81171","ECCENTRICITY":"0.00017070","TIME_SYSTEM":"UTC","MEAN_MOTION_DDOT":"0.0000000000000"},{"FILE":"3523146","INCLINATION":"53.0541","APOAPSIS":"548.271","OBJECT_NAME":"STARLINK-2015","PERIAPSIS":"546.167","COUNTRY_CODE":"US","OBJECT_TYPE":"PAYLOAD","CLASSIFICATION_TYPE":"U","LAUNCH_DATE":"2021-02-16","CENTER_NAME":"EARTH","EPHEMERIS_TYPE":"0","MEAN_ANOMALY":"289.6320","MEAN_MOTION_DDOT":"0.0000000000000","TIME_SYSTEM":"UTC","TLE_LINE2":"2 47638  53.0541 147.5493 0001519  70.4833 289.6320 15.06398174 81667","ECCENTRICITY":"0.00015190","PERIOD":"95.592","TLE_LINE1":"1 47638U 21012U   22208.52516198  .00000443  00000-0  48662-4 0  9996","RCS_SIZE":"LARGE","ARG_OF_PERICENTER":"70.4833","MEAN_MOTION":"15.06398174","NORAD_CAT_ID":"47638","GP_ID":"208972904","SEMIMAJOR_AXIS":"6925.354","RA_OF_ASC_NODE":"147.5493","REF_FRAME":"TEME","ELEMENT_SET_NO":"999","BSTAR":"0.00004866200000","MEAN_ELEMENT_THEORY":"SGP4","REV_AT_EPOCH":"8166","DECAY_DATE":null,"SITE":"AFETR","MEAN_MOTION_DOT":"0.00000443","EPOCH":"2022-07-27T12:36:13.995072","OBJECT_ID":"2021-012U"},{"LAUNCH_DATE":"2021-02-16","CENTER_NAME":"EARTH","EPHEMERIS_TYPE":"0","MEAN_ANOMALY":"287.9328","MEAN_MOTION_DDOT":"0.0000000000000","TIME_SYSTEM":"UTC","ECCENTRICITY":"0.00015480","TLE_LINE2":"2 47639  53.0539 221.4630 0001548  72.1830 287.9328 15.06397223 81155","FILE":"3523323","INCLINATION":"53.0539","APOAPSIS":"548.294","OBJECT_NAME":"STARLINK-2016","PERIAPSIS":"546.150","CLASSIFICATION_TYPE":"U","COUNTRY_CODE":"US","OBJECT_TYPE":"PAYLOAD","NORAD_CAT_ID":"47639","GP_ID":"208997639","SEMIMAJOR_AXIS":"6925.357","RA_OF_ASC_NODE":"221.4630","ELEMENT_SET_NO":"999","REF_FRAME":"TEME","MEAN_ELEMENT_THEORY":"SGP4","BSTAR":"0.00020896000000","REV_AT_EPOCH":"8115","DECAY_DATE":null,"SITE":"AFETR","MEAN_MOTION_DOT":"0.00002832","OBJECT_ID":"2021-012V","EPOCH":"2022-07-27T18:29:52.802592","PERIOD":"95.592","TLE_LINE1":"1 47639U 21012V   22208.77075003  .00002832  00000-0  20896-3 0  9991","ARG_OF_PERICENTER":"72.1830","RCS_SIZE":"LARGE","MEAN_MOTION":"15.06397223"}];
